[
    {
        "Altitude(m)": 710865.6830036946,
        "Argument of Periapsis(deg)": 0.007973084830638947,
        "Eccentricity": 0.0,
        "Inclination(deg)": 45.0,
        "Latitude(deg)": -27.818550264856423,
        "Longitude(deg)": 57.81121822503446,
        "Mean Anomaly(deg)": -41.01764834676339,
        "RAAN(deg)": 189.99247364097926,
        "Satellite Name": "Constellation 1 855",
        "Satellite Number": 855,
        "Semi-Major Axis(m)": 7083131.272910544,
        "Time(s)": 133
    },
    {
        "Altitude(m)": 710851.840324768,
        "Argument of Periapsis(deg)": 0.008033032836884352,
        "Eccentricity": 0.0,
        "Inclination(deg)": 45.0,
        "Latitude(deg)": -27.781889629081384,
        "Longitude(deg)": 57.8617136009401,
        "Mean Anomaly(deg)": -40.95694720651345,
        "RAAN(deg)": 189.9924170518137,
        "Satellite Name": "Constellation 1 855",
        "Satellite Number": 855,
        "Semi-Major Axis(m)": 7083131.272910544,
        "Time(s)": 134
    },
    {
        "Altitude(m)": 710837.9965373931,
        "Argument of Periapsis(deg)": 0.008092980843129758,
        "Eccentricity": 0.0,
        "Inclination(deg)": 45.0,
        "Latitude(deg)": -27.7452071630654,
        "Longitude(deg)": 57.91217250521106,
        "Mean Anomaly(deg)": -40.896246066263565,
        "RAAN(deg)": 189.99236046264812,
        "Satellite Name": "Constellation 1 855",
        "Satellite Number": 855,
        "Semi-Major Axis(m)": 7083131.272910544,
        "Time(s)": 135
    },
    {
        "Altitude(m)": 710824.1516895096,
        "Argument of Periapsis(deg)": 0.008152928849375162,
        "Eccentricity": 0.0,
        "Inclination(deg)": 45.0,
        "Latitude(deg)": -27.708502914264173,
        "Longitude(deg)": 57.96259499743095,
        "Mean Anomaly(deg)": -40.83554492601373,
        "RAAN(deg)": 189.99230387348257,
        "Satellite Name": "Constellation 1 855",
        "Satellite Number": 855,
        "Semi-Major Axis(m)": 7083131.272910544,
        "Time(s)": 136
    },
    {
        "Altitude(m)": 710810.3058290359,
        "Argument of Periapsis(deg)": 0.008212876855620568,
        "Eccentricity": 0.0,
        "Inclination(deg)": 45.0,
        "Latitude(deg)": -27.67177693006511,
        "Longitude(deg)": 58.012981137205934,
        "Mean Anomaly(deg)": -40.774843785763764,
        "RAAN(deg)": 189.99224728431702,
        "Satellite Name": "Constellation 1 855",
        "Satellite Number": 855,
        "Semi-Major Axis(m)": 7083131.272910544,
        "Time(s)": 137
    },
    {
        "Altitude(m)": 710796.4590038917,
        "Argument of Periapsis(deg)": 0.008272824861865974,
        "Eccentricity": 0.0,
        "Inclination(deg)": 45.0,
        "Latitude(deg)": -27.635029257787558,
        "Longitude(deg)": 58.06333098416388,
        "Mean Anomaly(deg)": -40.71414264551388,
        "RAAN(deg)": 189.9921906951514,
        "Satellite Name": "Constellation 1 855",
        "Satellite Number": 855,
        "Semi-Major Axis(m)": 7083131.272910544,
        "Time(s)": 138
    },
    {
        "Altitude(m)": 710782.6112619849,
        "Argument of Periapsis(deg)": 0.00833277286811138,
        "Eccentricity": 0.0,
        "Inclination(deg)": 45.0,
        "Latitude(deg)": -27.598259944682546,
        "Longitude(deg)": 58.113644597954675,
        "Mean Anomaly(deg)": -40.65344150526405,
        "RAAN(deg)": 189.99213410598585,
        "Satellite Name": "Constellation 1 855",
        "Satellite Number": 855,
        "Semi-Major Axis(m)": 7083131.272910544,
        "Time(s)": 139
    },
    {
        "Altitude(m)": 710768.7626512216,
        "Argument of Periapsis(deg)": 0.008392720874356788,
        "Eccentricity": 0.0,
        "Inclination(deg)": 45.0,
        "Latitude(deg)": -27.56146903793295,
        "Longitude(deg)": 58.16392203824927,
        "Mean Anomaly(deg)": -40.59274036501405,
        "RAAN(deg)": 189.99207751682027,
        "Satellite Name": "Constellation 1 855",
        "Satellite Number": 855,
        "Semi-Major Axis(m)": 7083131.272910544,
        "Time(s)": 140
    },
    {
        "Altitude(m)": 710754.9132194916,
        "Argument of Periapsis(deg)": 0.008452668880602192,
        "Eccentricity": 0.0,
        "Inclination(deg)": 45.0,
        "Latitude(deg)": -27.524656584654043,
        "Longitude(deg)": 58.21416319664223,
        "Mean Anomaly(deg)": -40.53203922476412,
        "RAAN(deg)": 189.99202092765472,
        "Satellite Name": "Constellation 1 855",
        "Satellite Number": 855,
        "Semi-Major Axis(m)": 7083131.272910544,
        "Time(s)": 141
    },
    {
        "Altitude(m)": 710741.0630146816,
        "Argument of Periapsis(deg)": 0.008512616886847598,
        "Eccentricity": 0.0,
        "Inclination(deg)": 45.0,
        "Latitude(deg)": -27.487822631892477,
        "Longitude(deg)": 58.26436846903901,
        "Mean Anomaly(deg)": -40.47133808451426,
        "RAAN(deg)": 189.99196433848917,
        "Satellite Name": "Constellation 1 855",
        "Satellite Number": 855,
        "Semi-Major Axis(m)": 7083131.272910544,
        "Time(s)": 142
    },
    {
        "Altitude(m)": 710727.2120846678,
        "Argument of Periapsis(deg)": 0.008572564893093004,
        "Eccentricity": 0.0,
        "Inclination(deg)": 45.0,
        "Latitude(deg)": -27.450967226627537,
        "Longitude(deg)": 58.31453774707435,
        "Mean Anomaly(deg)": -40.4106369442644,
        "RAAN(deg)": 189.9919077493236,
        "Satellite Name": "Constellation 1 855",
        "Satellite Number": 855,
        "Semi-Major Axis(m)": 7083131.272910544,
        "Time(s)": 143
    },
    {
        "Altitude(m)": 710713.3604773249,
        "Argument of Periapsis(deg)": 0.008632512899338408,
        "Eccentricity": 0.0,
        "Inclination(deg)": 45.0,
        "Latitude(deg)": -27.414090415770573,
        "Longitude(deg)": 58.364671090499165,
        "Mean Anomaly(deg)": -40.349935804014436,
        "RAAN(deg)": 189.99185116015803,
        "Satellite Name": "Constellation 1 855",
        "Satellite Number": 855,
        "Semi-Major Axis(m)": 7083131.272910544,
        "Time(s)": 144
    },
    {
        "Altitude(m)": 710699.5082405045,
        "Argument of Periapsis(deg)": 0.008692460905583814,
        "Eccentricity": 0.0,
        "Inclination(deg)": 45.0,
        "Latitude(deg)": -27.377192246165304,
        "Longitude(deg)": 58.41476855908296,
        "Mean Anomaly(deg)": -40.289234663764596,
        "RAAN(deg)": 189.99179457099243,
        "Satellite Name": "Constellation 1 855",
        "Satellite Number": 855,
        "Semi-Major Axis(m)": 7083131.272910544,
        "Time(s)": 145
    },
    {
        "Altitude(m)": 710685.6554220563,
        "Argument of Periapsis(deg)": 0.00875240891182922,
        "Eccentricity": 0.0,
        "Inclination(deg)": 45.0,
        "Latitude(deg)": -27.340272764587734,
        "Longitude(deg)": 58.464830212613904,
        "Mean Anomaly(deg)": -40.22853352351471,
        "RAAN(deg)": 189.99173798182687,
        "Satellite Name": "Constellation 1 855",
        "Satellite Number": 855,
        "Semi-Major Axis(m)": 7083131.272910544,
        "Time(s)": 146
    },
    {
        "Altitude(m)": 710671.8020698313,
        "Argument of Periapsis(deg)": 0.008812356918074627,
        "Eccentricity": 0.0,
        "Inclination(deg)": 45.0,
        "Latitude(deg)": -27.303332017746236,
        "Longitude(deg)": 58.51485611089809,
        "Mean Anomaly(deg)": -40.167832383264745,
        "RAAN(deg)": 189.99168139266132,
        "Satellite Name": "Constellation 1 855",
        "Satellite Number": 855,
        "Semi-Major Axis(m)": 7083131.272910544,
        "Time(s)": 147
    },
    {
        "Altitude(m)": 710657.9482316539,
        "Argument of Periapsis(deg)": 0.008872304924320031,
        "Eccentricity": 0.0,
        "Inclination(deg)": 45.0,
        "Latitude(deg)": -27.266370052282117,
        "Longitude(deg)": 58.56484614566204,
        "Mean Anomaly(deg)": -40.10713124301489,
        "RAAN(deg)": 189.99162480349574,
        "Satellite Name": "Constellation 1 855",
        "Satellite Number": 855,
        "Semi-Major Axis(m)": 7083131.272910544,
        "Time(s)": 148
    },
    {
        "Altitude(m)": 710644.093955346,
        "Argument of Periapsis(deg)": 0.008932252930565437,
        "Eccentricity": 0.0,
        "Inclination(deg)": 45.0,
        "Latitude(deg)": -27.22938691476845,
        "Longitude(deg)": 58.614800712940344,
        "Mean Anomaly(deg)": -40.04643010276493,
        "RAAN(deg)": 189.9915682143302,
        "Satellite Name": "Constellation 1 855",
        "Satellite Number": 855,
        "Semi-Major Axis(m)": 7083131.272910544,
        "Time(s)": 149
    },
    {
        "Altitude(m)": 710630.2392887202,
        "Argument of Periapsis(deg)": 0.008992200936810843,
        "Eccentricity": 0.0,
        "Inclination(deg)": 45.0,
        "Latitude(deg)": -27.192382651711796,
        "Longitude(deg)": 58.66471970449318,
        "Mean Anomaly(deg)": -39.98572896251509,
        "RAAN(deg)": 189.99151162516458,
        "Satellite Name": "Constellation 1 855",
        "Satellite Number": 855,
        "Semi-Major Axis(m)": 7083131.272910544,
        "Time(s)": 150
    },
    {
        "Altitude(m)": 710616.3842795793,
        "Argument of Periapsis(deg)": 0.009052148943056249,
        "Eccentricity": 0.0,
        "Inclination(deg)": 45.0,
        "Latitude(deg)": -27.155357309551082,
        "Longitude(deg)": 58.71460318019414,
        "Mean Anomaly(deg)": -39.9250278222652,
        "RAAN(deg)": 189.99145503599902,
        "Satellite Name": "Constellation 1 855",
        "Satellite Number": 855,
        "Semi-Major Axis(m)": 7083131.272910544,
        "Time(s)": 151
    }
]